QIANFAN-17              
1 60395U 24140S   25238.89550223  .00000114  00000+0  15825-3 0  9997
2 60395  88.9835 310.5837 0016406 151.3074 208.8983 13.50966174 53571
QIANFAN-18              
1 60396U 24140T   25238.87501637  .00000082  00000+0  10744-3 0  9990
2 60396  88.9827 310.1278 0016161 135.5737 224.6714 13.50967983 52965
QIANFAN-19              
1 61552U 24185A   25238.89481649  .00000386  00000+0  19544-3 0  9990
2 61552  88.9770  90.3158 0005217 303.0154  57.0531 14.14132775 54428
QIANFAN-20              
1 61553U 24185B   25238.86555153  .00000418  00000+0  23493-3 0  9994
2 61553  88.9770  90.5343 0005450 346.9270  13.1771 14.08685395 54301
QIANFAN-21              
1 61554U 24185C   25238.91333302  .00000574  00000+0  25145-3 0  9990
2 61554  88.9685  89.6257 0010986   6.1835 353.9490 14.22387621 54649
QIANFAN-22              
1 61555U 24185D   25238.88029729  .00000207  00000+0  16804-3 0  9997
2 61555  88.9755  91.0798 0006015 342.8137  17.2830 13.86245142 53993
QIANFAN-23              
1 61556U 24185E   25238.95105922  .00000494  00000+0  24290-3 0  9992
2 61556  88.9763  90.1690 0006360 317.2399  42.8294 14.16106970 54496
QIANFAN-24              
1 61557U 24185F   25238.86656146  .00000571  00000+0  24449-3 0  9994
2 61557  88.9744  89.7603 0007659 298.2838  61.7581 14.23587530 54674
